POLYITAN-1              
1 40042U 14033AJ  26197.60603149  .00010814  00000+0  32851-3 0  9990
2 40042  98.0930 226.6719 0007762  60.1864 300.0148 15.34251009658107
TIGRISAT                
1 40043U 14033AK  26197.42245954  .00000694  00000+0  85612-4 0  9996
2 40043  97.7866 346.7713 0048535 340.2740  19.6596 14.85251528649963
AEROCUBE 6A             
1 40045U 14033AM  26197.87713382  .00003303  00000+0  27865-3 0  9997
2 40045  97.7254   4.5171 0036191 275.0947  84.6145 14.98354523651061
AEROCUBE 6B             
1 40046U 14033AN  26197.91729840  .00002580  00000+0  21043-3 0  9997
2 40046  97.7204   4.4075 0038109 264.0009  95.6870 14.99807252651214
CANX-4                  
1 40055U 14034C   26198.14380579  .00000381  00000+0  56174-4 0  9997
2 40055  98.3080  74.5514 0011373 275.8115  84.1800 14.81313013648963
CANX-5                  
1 40056U 14034D   26198.14188900  .00000381  00000+0  56082-4 0  9990
2 40056  98.3083  74.5947 0011375 276.0834  83.9082 14.81330365639777
UKUBE-1                 
1 40074U 14037F   26197.97978060  .00004467  00000+0  25063-3 0  9990
2 40074  98.4243 204.3928 0003222  84.6654 275.4942 15.13965427653063
BRITE-PL2 (HEWELIUSZ)   
1 40119U 14049B   26197.89668719  .00000489  00000+0  50495-4 0  9999
2 40119  97.9120 310.1310 0014172  16.6624 343.5058 14.94689258645889
AEROCUBE 5C             
1 40965U 15058B   26197.94102997  .00001731  00000+0  16074-3 0  9991
2 40965  64.7647 170.0163 0132440  51.7932 309.5018 14.91582735370099
AEROCUBE 7              
1 40966U 15058C   26197.58435806  .00002715  00000+0  22231-3 0  9995
2 40966  64.7615 152.7227 0122135  50.2313 310.9482 14.95921688370358
FOX-1A (AO-85)          
1 40967U 15058D   26197.32760414  .00001582  00000+0  15016-3 0  9998
2 40967  64.7725 188.4142 0132456  45.3781 315.8042 14.91092003117917
SINOD-D 1               
1 40968U 15058E   26197.89305602  .00002792  00000+0  22756-3 0  9998
2 40968  64.7738 165.8705 0121181  41.5238 319.5003 14.96097928121104
SNAP-3 ALICE            
1 40970U 15058G   26197.84494593  .00100605  00000+0  89502-3 0  9998
2 40970  64.7497   0.8241 0024945 347.1222  12.9287 15.67559227121528
LMRST-SAT               
1 40971U 15058H   26197.35748516  .00001536  00000+0  14712-3 0  9996
2 40971  64.7732 184.7151 0134000  47.3672 313.8644 14.90707153117900
SNAP-3 EDDIE            
1 40972U 15058J   26197.81104899  .00105052  00000+0  88046-3 0  9997
2 40972  64.7408 351.4391 0026072 349.8624  10.1996 15.68956444123668
PROPCUBE 3              
1 40973U 15058K   26197.85643120  .00002334  00000+0  19914-3 0  9994
2 40973  64.7675 159.8251 0125901  48.3690 312.8125 14.94424231119231
BISONSAT                
1 40974U 15058L   26197.90477130  .00007443  00000+0  35365-3 0  9991
2 40974  64.7581  77.5031 0082310  35.1259 325.5253 15.16959443120127
SNAP-3 JIMI             
1 40975U 15058M   26197.87578509  .00004084  00000+0  28179-3 0  9993
2 40975  64.7651 125.8158 0107963  43.6937 317.2663 15.02623767118685
PROPCUBE 1 (FLORA)      
1 40976U 15058N   26197.40637571  .00001269  00000+0  12914-3 0  9990
2 40976  64.7718 204.6689 0132569  49.6229 311.6365 14.89331448120614
SINOD-D 3               
1 40977U 15058P   26197.95979446  .00002297  00000+0  19968-3 0  9999
2 40977  64.7706 182.8349 0121208  46.4590 314.6513 14.94182425119202
RAVAN                   
1 41849U 16067B   26197.68716448  .00037324  00000+0  50618-3 0  9996
2 41849  97.9839  90.7306 0002422 209.8992 150.2123 15.57575989532282
CELTEE 1                
1 41850U 16067C   26198.09773582  .00002721  00000+0  13018-3 0  9992
2 41850  98.0628  66.7044 0002362 107.7309 252.4182 15.19951703530429
OPTICUBE 04             
1 41851U 16067D   26197.83827257  .00000897  00000+0  59841-4 0  9990
2 41851  98.0673  51.6669 0016057  22.5432 337.6498 15.09775775529643
AEROCUBE 8D             
1 41852U 16067E   26198.08388691  .00004067  00000+0  16734-3 0  9999
2 41852  98.0637  70.5317 0004475  51.9450 308.2189 15.24785915530626
AEROCUBE 8C             
1 41853U 16067F   26197.57901483  .00004101  00000+0  16746-3 0  9995
2 41853  98.0512  67.1784 0004070 336.3351  23.7698 15.25035356530543
CORVUS BC2              
1 42846U 17042X   26197.42227782  .00001056  00000+0  75471-4 0  9996
2 42846  97.4091 357.6431 0013332  19.0018 341.1704 15.06459280491460
CORVUS BC1              
1 42847U 17042Y   26197.87858163  .00001449  00000+0  10165-3 0  9993
2 42847  97.4122 358.9151 0011468 354.1091   6.0000 15.06624631491562
MAKERSAT 0              
1 43016U 17073D   26197.43085670  .00011478  00000+0  30313-3 0  9993
2 43016  97.4577  80.1901 0105507 167.8681 192.5141 15.33035166470949
SIRION PATHFINDER-2     
1 43759U 18099B   26197.64576084  .00001892  00000+0  10542-3 0  9994
2 43759  97.4236 246.0049 0008606 186.2645 173.8481 15.14783275417083
CORVUS BC4              
1 43767U 18099K   26197.62635853  .00001806  00000+0  10674-3 0  9992
2 43767  97.4049 239.7463 0006558 254.7281 105.3225 15.12708038416856
M2 PATHFINDER           
1 45727U 20037E   26197.97105610  .00000653  00000+0  50756-4 0  9991
2 45727  97.8141  29.5398 0012754  57.0170 303.2280 15.04794277329976
